IRIDIUM 26              
1 24903U 97043A   25212.60738659  .00000342  00000+0  10856-3 0  9998
2 24903  86.3931  91.9601 0001977  82.7817 277.3605 14.37172841463127
IRIDIUM 22              
1 24907U 97043E   25212.64365089  .00000307  00000+0  98904-4 0  9991
2 24907  86.3939  95.5243 0002067  87.6074 272.5359 14.35981765463158
DUMMY MASS 1            
1 24925U 97048A   25212.22562793  .00000413  00000+0  43002-4 0  9998
2 24925  86.3355 114.9734 0006707  11.4519 348.6858 14.87016383511914
DUMMY MASS 2            
1 24926U 97048B   25212.46433445  .00000427  00000+0  44734-4 0  9994
2 24926  86.3357 116.4786 0007906  19.4676 340.6849 14.86768486511486
IRIDIUM 29              
1 24944U 97051A   25212.51142014  .00000433  00000+0  14083-3 0  9993
2 24944  86.3979 125.3148 0002328  88.7989 271.3475 14.36497835459631
IRIDIUM 33              
1 24946U 97051C   25212.47219048  .00000311  00000+0  10254-3 0  9993
2 24946  86.3895 124.5952 0006016 304.1826  55.8800 14.34915613459091
IRIDIUM 28              
1 24948U 97051E   25212.45696777  .00000338  00000+0  10655-3 0  9995
2 24948  86.3982 122.8283 0001789  75.5709 284.5687 14.37411466460208
IRIDIUM 36              
1 24967U 97056C   25212.55259546  .00000417  00000+0  13235-3 0  9996
2 24967  86.4018 154.3766 0002015  89.2636 270.8793 14.37638542458591
